{
  "type": "FeatureCollection",
  "features": [
    {
      "type": "Feature",
      "properties": {
        "norad_id": 32241,
        "name": "FENGYUN 1C DEB",
        "group": "fengyun-1c-debris",
        "lat": 47.78747853078131,
        "lon": -157.2139773108558,
        "alt_km": 812.1027504198082,
        "timestamp": "2025-12-09T07:41:33.494901+00:00",
        "meta_object_name": "FENGYUN 1C DEB",
        "meta_object_id": "1999-025CWP",
        "meta_epoch": "2025-12-07T19:46:08.173344",
        "meta_mean_motion": 14.28684747,
        "meta_eccentricity": 0.01462273,
        "meta_inclination": 99.0774,
        "meta_ra_of_asc_node": 11.0781,
        "meta_arg_of_pericenter": 237.6639,
        "meta_mean_anomaly": 121.0314,
        "meta_ephemeris_type": 0,
        "meta_classification_type": "U",
        "meta_norad_cat_id": 32241,
        "meta_element_set_no": 999,
        "meta_rev_at_epoch": 93753,
        "meta_bstar": 0.0026184571,
        "meta_mean_motion_dot": 7.341e-05,
        "meta_mean_motion_ddot": 0,
        "tle_line1": "1 32241U 99025CWP 25341.82370571  .00007341  00000+0  26185-2 0  9993",
        "tle_line2": "2 32241  99.0774  11.0781 0146227 237.6639 121.0314 14.28684747937536"
      },
      "geometry": {
        "type": "Point",
        "coordinates": [
          -157.2139773108558,
          47.78747853078131
        ]
      }
    },
    {
      "type": "Feature",
      "properties": {
        "norad_id": 32243,
        "name": "FENGYUN 1C DEB",
        "group": "fengyun-1c-debris",
        "lat": 12.270275038096779,
        "lon": 6.432261946834201,
        "alt_km": 975.1436449805778,
        "timestamp": "2025-12-09T07:41:33.494911+00:00",
        "meta_object_name": "FENGYUN 1C DEB",
        "meta_object_id": "1999-025CWR",
        "meta_epoch": "2025-12-08T00:51:24.410880",
        "meta_mean_motion": 14.04547558,
        "meta_eccentricity": 0.02696344,
        "meta_inclination": 98.268,
        "meta_ra_of_asc_node": 7.0724,
        "meta_arg_of_pericenter": 136.8567,
        "meta_mean_anomaly": 225.4079,
        "meta_ephemeris_type": 0,
        "meta_classification_type": "U",
        "meta_norad_cat_id": 32243,
        "meta_element_set_no": 999,
        "meta_rev_at_epoch": 93522,
        "meta_bstar": 0.002015763,
        "meta_mean_motion_dot": 4.419e-05,
        "meta_mean_motion_ddot": 0,
        "tle_line1": "1 32243U 99025CWR 25342.03569920  .00004419  00000+0  20158-2 0  9994",
        "tle_line2": "2 32243  98.2680   7.0724 0269634 136.8567 225.4079 14.04547558935228"
      },
      "geometry": {
        "type": "Point",
        "coordinates": [
          6.432261946834201,
          12.270275038096779
        ]
      }
    },
    {
      "type": "Feature",
      "properties": {
        "norad_id": 32245,
        "name": "FENGYUN 1C DEB",
        "group": "fengyun-1c-debris",
        "lat": 62.82626007921327,
        "lon": 16.383055690828474,
        "alt_km": 670.1457372449477,
        "timestamp": "2025-12-09T07:41:33.494921+00:00",
        "meta_object_name": "FENGYUN 1C DEB",
        "meta_object_id": "1999-025CWT",
        "meta_epoch": "2025-12-08T06:47:00.083040",
        "meta_mean_motion": 14.76843452,
        "meta_eccentricity": 0.00978135,
        "meta_inclination": 98.6545,
        "meta_ra_of_asc_node": 178.0112,
        "meta_arg_of_pericenter": 355.9473,
        "meta_mean_anomaly": 4.0932,
        "meta_ephemeris_type": 0,
        "meta_classification_type": "U",
        "meta_norad_cat_id": 32245,
        "meta_element_set_no": 999,
        "meta_rev_at_epoch": 66040,
        "meta_bstar": 0.0014541087,
        "meta_mean_motion_dot": 0.00011,
        "meta_mean_motion_ddot": 0,
        "tle_line1": "1 32245U 99025CWT 25342.28263985  .00011000  00000+0  14541-2 0  9998",
        "tle_line2": "2 32245  98.6545 178.0112 0097813 355.9473   4.0932 14.76843452660407"
      },
      "geometry": {
        "type": "Point",
        "coordinates": [
          16.383055690828474,
          62.82626007921327
        ]
      }
    },
    {
      "type": "Feature",
      "properties": {
        "norad_id": 32304,
        "name": "FENGYUN 1C DEB",
        "group": "fengyun-1c-debris",
        "lat": 75.43667640180732,
        "lon": -102.09892942629436,
        "alt_km": 749.5482190174489,
        "timestamp": "2025-12-09T07:41:33.494932+00:00",
        "meta_object_name": "FENGYUN 1C DEB",
        "meta_object_id": "1999-025CWV",
        "meta_epoch": "2025-12-03T02:19:20.087328",
        "meta_mean_motion": 14.50391603,
        "meta_eccentricity": 0.00495576,
        "meta_inclination": 99.3949,
        "meta_ra_of_asc_node": 290.5539,
        "meta_arg_of_pericenter": 255.7789,
        "meta_mean_anomaly": 103.7894,
        "meta_ephemeris_type": 0,
        "meta_classification_type": "U",
        "meta_norad_cat_id": 32304,
        "meta_element_set_no": 999,
        "meta_rev_at_epoch": 56133,
        "meta_bstar": 0.0019806873,
        "meta_mean_motion_dot": 7.809e-05,
        "meta_mean_motion_ddot": 0,
        "tle_line1": "1 32304U 99025CWV 25337.09676027  .00007809  00000+0  19807-2 0  9994",
        "tle_line2": "2 32304  99.3949 290.5539 0049557 255.7789 103.7894 14.50391603561335"
      },
      "geometry": {
        "type": "Point",
        "coordinates": [
          -102.09892942629436,
          75.43667640180732
        ]
      }
    },
    {
      "type": "Feature",
      "properties": {
        "norad_id": 32308,
        "name": "FENGYUN 1C DEB",
        "group": "fengyun-1c-debris",
        "lat": 2.8756184057058216,
        "lon": -142.9012038054823,
        "alt_km": 899.0936894161441,
        "timestamp": "2025-12-09T07:41:33.494942+00:00",
        "meta_object_name": "FENGYUN 1C DEB",
        "meta_object_id": "1999-025CWZ",
        "meta_epoch": "2025-12-06T13:56:17.681280",
        "meta_mean_motion": 14.05453804,
        "meta_eccentricity": 0.01091821,
        "meta_inclination": 97.7755,
        "meta_ra_of_asc_node": 34.3534,
        "meta_arg_of_pericenter": 78.3987,
        "meta_mean_anomaly": 282.9416,
        "meta_ephemeris_type": 0,
        "meta_classification_type": "U",
        "meta_norad_cat_id": 32308,
        "meta_element_set_no": 999,
        "meta_rev_at_epoch": 65325,
        "meta_bstar": 0.0028488037,
        "meta_mean_motion_dot": 4.847e-05,
        "meta_mean_motion_ddot": 0,
        "tle_line1": "1 32308U 99025CWZ 25340.58076020  .00004847  00000+0  28488-2 0  9997",
        "tle_line2": "2 32308  97.7755  34.3534 0109182  78.3987 282.9416 14.05453804653250"
      },
      "geometry": {
        "type": "Point",
        "coordinates": [
          -142.9012038054823,
          2.8756184057058216
        ]
      }
    },
    {
      "type": "Feature",
      "properties": {
        "norad_id": 32314,
        "name": "FENGYUN 1C DEB",
        "group": "fengyun-1c-debris",
        "lat": -24.88054422310454,
        "lon": -96.13562522438079,
        "alt_km": 552.2807223116406,
        "timestamp": "2025-12-09T07:41:33.494953+00:00",
        "meta_object_name": "FENGYUN 1C DEB",
        "meta_object_id": "1999-025CXF",
        "meta_epoch": "2025-12-08T12:55:03.955872",
        "meta_mean_motion": 14.79320176,
        "meta_eccentricity": 0.0149436,
        "meta_inclination": 98.8634,
        "meta_ra_of_asc_node": 87.1524,
        "meta_arg_of_pericenter": 170.9933,
        "meta_mean_anomaly": 189.4012,
        "meta_ephemeris_type": 0,
        "meta_classification_type": "U",
        "meta_norad_cat_id": 32314,
        "meta_element_set_no": 999,
        "meta_rev_at_epoch": 97368,
        "meta_bstar": 0.0022339,
        "meta_mean_motion_dot": 0.00020076,
        "meta_mean_motion_ddot": 0,
        "tle_line1": "1 32314U 99025CXF 25342.53824023  .00020076  00000+0  22339-2 0  9996",
        "tle_line2": "2 32314  98.8634  87.1524 0149436 170.9933 189.4012 14.79320176973687"
      },
      "geometry": {
        "type": "Point",
        "coordinates": [
          -96.13562522438079,
          -24.88054422310454
        ]
      }
    },
    {
      "type": "Feature",
      "properties": {
        "norad_id": 32315,
        "name": "FENGYUN 1C DEB",
        "group": "fengyun-1c-debris",
        "lat": -62.81667991329834,
        "lon": -75.75326083194153,
        "alt_km": 1107.2784266235094,
        "timestamp": "2025-12-09T07:41:33.494963+00:00",
        "meta_object_name": "FENGYUN 1C DEB",
        "meta_object_id": "1999-025CXG",
        "meta_epoch": "2025-11-20T16:04:27.676128",
        "meta_mean_motion": 13.66155502,
        "meta_eccentricity": 0.02289149,
        "meta_inclination": 100.8052,
        "meta_ra_of_asc_node": 105.2905,
        "meta_arg_of_pericenter": 168.6,
        "meta_mean_anomaly": 192.0449,
        "meta_ephemeris_type": 0,
        "meta_classification_type": "U",
        "meta_norad_cat_id": 32315,
        "meta_element_set_no": 999,
        "meta_rev_at_epoch": 60787,
        "meta_bstar": 0.00024184327,
        "meta_mean_motion_dot": 1.85e-06,
        "meta_mean_motion_ddot": 0,
        "tle_line1": "1 32315U 99025CXG 25324.66976477  .00000185  00000+0  24184-3 0  9992",
        "tle_line2": "2 32315 100.8052 105.2905 0228914 168.6000 192.0449 13.66155502607872"
      },
      "geometry": {
        "type": "Point",
        "coordinates": [
          -75.75326083194153,
          -62.81667991329834
        ]
      }
    }
  ]
}